[{"OBJECT_NAME":"GEESAT-1 04","OBJECT_ID":"2022-058D","EPOCH":"2026-03-09T22:25:22.027008","MEAN_MOTION":14.810114,"ECCENTRICITY":0.00100038,"INCLINATION":50.0041,"RA_OF_ASC_NODE":301.1948,"ARG_OF_PERICENTER":127.9517,"MEAN_ANOMALY":232.2326,"EPHEMERIS_TYPE":0,"CLASSIFICATION_TYPE":"U","NORAD_CAT_ID":52788,"ELEMENT_SET_NO":999,"REV_AT_EPOCH":20521,"BSTAR":0.00036323444,"MEAN_MOTION_DOT":2.624e-5,"MEAN_MOTION_DDOT":0},{"OBJECT_NAME":"KUIPER-00048","OBJECT_ID":"2025-134J","EPOCH":"2026-03-09T17:11:53.880576","MEAN_MOTION":14.79930118,"ECCENTRICITY":6.369e-5,"INCLINATION":51.9001,"RA_OF_ASC_NODE":215.4599,"ARG_OF_PERICENTER":88.6805,"MEAN_ANOMALY":271.423,"EPHEMERIS_TYPE":0,"CLASSIFICATION_TYPE":"U","NORAD_CAT_ID":64508,"ELEMENT_SET_NO":999,"REV_AT_EPOCH":4032,"BSTAR":-0.00050875498,"MEAN_MOTION_DOT":-4.097e-5,"MEAN_MOTION_DDOT":0}]
